     2.100          NAVIGATION                              RINEX VERSION / TYPE
fic2rin                                 05/04/2011 00:05:49 PGM / RUN BY / DATE
                                                            END OF HEADER
11 11  5  3  4  0  0.0 -.147664453834D-03 -.329691829393D-11  .000000000000D+00
     .330000000000D+02 -.371250000000D+02  .641848164124D-08  .556880758285D+00
    -.168010592461D-05  .117311021313D-01  .789575278759D-05  .515350177383D+04
     .187200000000D+06 -.158324837685D-06 -.743676978868D+00  .117346644402D-06
     .887973670822D+00  .188375000000D+03  .923146736013D+00 -.903859077930D-08
    -.716458414797D-09  .100000000000D+01  .163400000000D+04  .000000000000D+00
     .240000000000D+01  .000000000000D+00 -.116415321827D-07  .330000000000D+02
     .180006000000D+06  .400000000000D+01
13 11  5  3  4  0  0.0  .272695440799D-03 -.159161572810D-11  .000000000000D+00
     .240000000000D+02 -.233750000000D+02  .404195407790D-08  .288625060472D+01
    -.118836760521D-05  .474577466957D-02  .119023025036D-05  .515360698700D+04
     .187200000000D+06  .689178705215D-07  .168357712587D+01  .931322574615D-08
     .989592918437D+00  .371281250000D+03  .182597274554D+01 -.805533553706D-08
    -.335728270144D-10  .100000000000D+01  .163400000000D+04  .000000000000D+00
     .240000000000D+01  .000000000000D+00 -.111758708954D-07  .240000000000D+02
     .180006000000D+06  .400000000000D+01
14 11  5  3  4  0  0.0  .147655606270D-03  .238742359215D-11  .000000000000D+00
     .630000000000D+02 -.150625000000D+02  .417231665088D-08  .289639958573D+01
    -.769272446632D-06  .567685277201D-02  .968575477600D-06  .515365692711D+04
     .187200000000D+06  .558793544769D-08  .165951767085D+01 -.260770320892D-07
     .982644443771D+00  .372562500000D+03 -.210344153569D+01 -.812998150351D-08
     .453590322429D-10  .100000000000D+01  .163400000000D+04  .000000000000D+00
     .240000000000D+01  .000000000000D+00 -.884756445885D-08  .630000000000D+02
     .180006000000D+06  .400000000000D+01
15 11  5  3  4  0  0.0 -.130851753056D-03  .272848410532D-11  .000000000000D+00
     .740000000000D+02 -.725000000000D+01  .505806783168D-08  .248341378893D+01
    -.352039933205D-06  .339944229927D-02  .325962901115D-06  .515360671616D+04
     .187200000000D+06 -.577419996262D-07  .158443729911D+01  .242143869400D-07
     .949858702890D+00  .367187500000D+03 -.482746157229D-01 -.864750306036D-08
     .275011455331D-10  .100000000000D+01  .163400000000D+04  .000000000000D+00
     .240000000000D+01  .000000000000D+00 -.102445483208D-07  .740000000000D+02
     .180006000000D+06  .400000000000D+01
16 11  5  3  4  0  0.0 -.169425271451D-03 -.272848410532D-11  .000000000000D+00
     .100000000000D+02  .459375000000D+01  .421696136765D-08 -.200577943027D+01
     .819563865662D-07  .639571750071D-02  .103004276752D-04  .515379577827D+04
     .187200000000D+06 -.558793544769D-07 -.255206529841D+01 -.156462192535D-06
     .976045559712D+00  .191937500000D+03 -.128278094475D+00 -.769210612138D-08
     .616454249222D-09  .100000000000D+01  .163400000000D+04  .000000000000D+00
     .240000000000D+01  .000000000000D+00 -.977888703346D-08  .100000000000D+02
     .180006000000D+06  .400000000000D+01
17 11  5  3  4  0  0.0  .184369739145D-03  .000000000000D+00  .000000000000D+00
     .690000000000D+02 -.750000000000D+01  .500556564476D-08 -.307166553074D+01
    -.374391674995D-06  .630446802825D-02  .442937016487D-05  .515374302673D+04
     .187200000000D+06 -.428408384323D-07 -.150930664687D+01 -.165775418282D-06
     .960662297315D+00  .291343750000D+03 -.239729927273D+01 -.816855453880D-08
    -.168935608275D-09  .100000000000D+01  .163400000000D+04  .000000000000D+00
     .240000000000D+01  .000000000000D+00 -.107102096081D-07  .690000000000D+02
     .180006000000D+06  .400000000000D+01
18 11  5  3  4  0  0.0  .134996138513D-03  .193267624127D-11  .000000000000D+00
     .140000000000D+02  .136031250000D+03  .483805866742D-08 -.167360236670D+01
     .693462789059D-05  .122374531347D-01  .743940472603D-05  .515359970093D+04
     .187200000000D+06  .294297933578D-06  .572032063317D+00 -.167638063431D-06
     .933667747329D+00  .222187500000D+03 -.225817149606D+01 -.812069540242D-08
     .228938107620D-09  .100000000000D+01  .163400000000D+04  .000000000000D+00
     .240000000000D+01  .000000000000D+00 -.107102096081D-07  .140000000000D+02
     .180006000000D+06  .400000000000D+01
19 11  5  3  4  0  0.0 -.136619899422D-03 -.386535248253D-11  .000000000000D+00
     .530000000000D+02 -.534375000000D+01  .513199948266D-08  .257016004290D+01
    -.236555933952D-06  .727032998111D-02  .458583235741D-05  .515364179230D+04
     .187200000000D+06 -.184401869774D-06 -.145517628168D+01  .931322574615D-07
     .958184601240D+00  .291437500000D+03 -.187497236298D-02 -.821819946385D-08
    -.118933525487D-09  .100000000000D+01  .163400000000D+04  .000000000000D+00
     .240000000000D+01  .000000000000D+00 -.144354999065D-07  .530000000000D+02
     .180006000000D+06  .400000000000D+01
20 11  5  3  4  0  0.0  .491314567626D-04  .113686837722D-12  .000000000000D+00
     .560000000000D+02  .117593750000D+03  .488984653888D-08 -.130288425235D+01
     .611878931522D-05  .462276802864D-02  .807084143162D-05  .515368035126D+04
     .187200000000D+06  .372529029846D-07  .518121286517D+00  .115483999252D-06
     .933844344948D+00  .209593750000D+03  .129328193749D+01 -.828891669522D-08
     .122862260563D-09  .100000000000D+01  .163400000000D+04  .000000000000D+00
     .240000000000D+01  .000000000000D+00 -.745058059692D-08  .560000000000D+02
     .180006000000D+06  .400000000000D+01
21 11  5  3  4  0  0.0 -.141623429954D-03 -.261479726760D-11  .000000000000D+00
     .210000000000D+02  .106250000000D+01  .515592905085D-08 -.435817984974D+00
     .484287738800D-07  .177616224391D-01  .993348658085D-05  .515376545143D+04
     .187200000000D+06  .353902578354D-07 -.481781566102D+00  .230967998505D-06
     .932015175087D+00  .172000000000D+03 -.237302055993D+01 -.850249702027D-08
    -.663956227871D-09  .100000000000D+01  .163400000000D+04  .000000000000D+00
     .240000000000D+01  .000000000000D+00 -.116415321827D-07  .210000000000D+02
     .180006000000D+06  .400000000000D+01
22 11  5  3  4  0  0.0  .149358529598D-03 -.568434188608D-12  .000000000000D+00
     .870000000000D+02  .130156250000D+03  .483555856328D-08 -.246283354517D+01
     .663287937641D-05  .556726614013D-02  .787898898125D-05  .515371281242D+04
     .187200000000D+06  .111758708954D-07  .576210799573D+00 -.912696123123D-07
     .931359960412D+00  .212281250000D+03 -.197970754565D+01 -.813855328913D-08
     .228223792151D-09  .100000000000D+01  .163400000000D+04  .000000000000D+00
     .340000000000D+01  .000000000000D+00 -.167638063431D-07  .870000000000D+02
     .180006000000D+06  .400000000000D+01
23 11  5  3  4  0  0.0  .309155322611D-03 -.261479726760D-11  .000000000000D+00
     .810000000000D+02 -.362500000000D+01  .469162399640D-08  .215973163610D+01
    -.180676579475D-06  .721048878040D-02  .631436705589D-06  .515356180573D+04
     .187200000000D+06 -.465661287308D-07  .161443908055D+01  .130385160446D-06
     .964330662414D+00  .369656250000D+03  .313655891194D+01 -.842249368781D-08
    -.214294640518D-10  .100000000000D+01  .163400000000D+04  .000000000000D+00
     .240000000000D+01  .000000000000D+00 -.200234353542D-07  .810000000000D+02
     .180006000000D+06  .400000000000D+01
24 11  5  3  4  0  0.0  .386673957109D-03  .318323145621D-11  .000000000000D+00
     .150000000000D+02 -.618750000000D+01  .467055169008D-08  .139174001371D+01
    -.152736902237D-06  .609300250653D-02  .102259218693D-04  .515371920776D+04
     .187200000000D+06  .372529029846D-07 -.437457701092D+00  .113621354103D-06
     .948650549069D+00  .171781250000D+03 -.288125708015D+00 -.796354599937D-08
    -.649669918503D-09  .100000000000D+01  .163400000000D+04  .000000000000D+00
     .240000000000D+01  .000000000000D+00 -.139698386192D-08  .150000000000D+02
     .180006000000D+06  .400000000000D+01
25 11  5  3  4  0  0.0 -.717118382454D-06  .568434188608D-12  .000000000000D+00
     .950000000000D+02  .428125000000D+01  .448018661776D-08 -.125586343056D+01
     .234693288803D-06  .730206840672D-03  .102706253529D-04  .515366106606D+04
     .187200000000D+06  .316649675369D-07 -.259940852394D+01  .204890966415D-07
     .963833644774D+00  .184593750000D+03  .818538936941D+00 -.782532595624D-08
     .602167939855D-09  .100000000000D+01  .163400000000D+04  .000000000000D+00
     .340000000000D+01  .000000000000D+00  .512227416039D-08  .950000000000D+02
     .180006000000D+06  .400000000000D+01
26 11  5  3  4  0  0.0 -.194665044546D-04 -.108002495836D-10  .000000000000D+00
     .630000000000D+02 -.303125000000D+02  .414302971667D-08  .180181688276D+01
    -.192411243916D-05  .205070975935D-01  .135414302349D-05  .515364883041D+04
     .187200000000D+06 -.234693288803D-06  .167891006317D+01 -.474974513054D-06
     .987228601440D+00  .370125000000D+03  .114264940732D+01 -.817926927082D-08
     .214294640518D-11  .100000000000D+01  .163400000000D+04  .000000000000D+00
     .240000000000D+01  .000000000000D+00 -.605359673500D-08  .630000000000D+02
     .180006000000D+06  .400000000000D+01
27 11  5  3  4  0  0.0  .261256005615D-03  .363797880709D-11  .000000000000D+00
     .550000000000D+02 -.130843750000D+03  .382980238378D-08  .279162677389D+01
    -.680051743984D-05  .215863953345D-01  .859238207340D-05  .515368715858D+04
     .187200000000D+06  .406056642532D-06  .260463625730D+01  .894069671631D-07
     .981047532636D+00  .219000000000D+03 -.125862795952D+01 -.747924011180D-08
    -.263582407837D-09  .100000000000D+01  .163400000000D+04  .000000000000D+00
     .240000000000D+01  .000000000000D+00 -.419095158577D-08  .550000000000D+02
     .180006000000D+06  .400000000000D+01
